[{"OBJECT_NAME":"STARLINK-1571","OBJECT_ID":"2020-055BG","EPOCH":"2022-08-18T06:05:25.298592","MEAN_MOTION":15.06406731,"ECCENTRICITY":0.0002064,"INCLINATION":53.054,"RA_OF_ASC_NODE":170.0067,"ARG_OF_PERICENTER":50.0417,"MEAN_ANOMALY":310.0753,"EPHEMERIS_TYPE":0,"CLASSIFICATION_TYPE":"U","NORAD_CAT_ID":46081,"ELEMENT_SET_NO":999,"REV_AT_EPOCH":11291,"BSTAR":3.7657e-5,"MEAN_MOTION_DOT":2.79e-6,"MEAN_MOTION_DDOT":0},{"OBJECT_NAME":"STARLINK-1578","OBJECT_ID":"2020-055BH","EPOCH":"2022-08-19T03:19:16.056192","MEAN_MOTION":15.06411765,"ECCENTRICITY":0.0001551,"INCLINATION":53.0546,"RA_OF_ASC_NODE":166.0505,"ARG_OF_PERICENTER":74.9924,"MEAN_ANOMALY":285.1237,"EPHEMERIS_TYPE":0,"CLASSIFICATION_TYPE":"U","NORAD_CAT_ID":46082,"ELEMENT_SET_NO":999,"REV_AT_EPOCH":11305,"BSTAR":0.00014041,"MEAN_MOTION_DOT":1.811e-5,"MEAN_MOTION_DDOT":0},{"OBJECT_NAME":"STARLINK-1579","OBJECT_ID":"2020-055BJ","EPOCH":"2022-08-19T02:36:48.825216","MEAN_MOTION":15.0640784,"ECCENTRICITY":0.0001403,"INCLINATION":53.0547,"RA_OF_ASC_NODE":166.1754,"ARG_OF_PERICENTER":85.441,"MEAN_ANOMALY":274.6739,"EPHEMERIS_TYPE":0,"CLASSIFICATION_TYPE":"U","NORAD_CAT_ID":46083,"ELEMENT_SET_NO":999,"REV_AT_EPOCH":11304,"BSTAR":0.00023104,"MEAN_MOTION_DOT":3.162e-5,"MEAN_MOTION_DDOT":0},{"OBJECT_NAME":"STARLINK-1585","OBJECT_ID":"2020-057A","EPOCH":"2022-08-18T16:15:48.769920","MEAN_MOTION":15.06402225,"ECCENTRICITY":0.0001336,"INCLINATION":53.0567,"RA_OF_ASC_NODE":8.1022,"ARG_OF_PERICENTER":89.8813,"MEAN_ANOMALY":270.2329,"EPHEMERIS_TYPE":0,"CLASSIFICATION_TYPE":"U","NORAD_CAT_ID":46117,"ELEMENT_SET_NO":999,"REV_AT_EPOCH":11055,"BSTAR":9.7454e-5,"MEAN_MOTION_DOT":1.171e-5,"MEAN_MOTION_DDOT":0},{"OBJECT_NAME":"STARLINK-1588","OBJECT_ID":"2020-057B","EPOCH":"2022-08-18T11:42:27.535680","MEAN_MOTION":15.06415981,"ECCENTRICITY":0.0001227,"INCLINATION":53.0546,"RA_OF_ASC_NODE":28.9501,"ARG_OF_PERICENTER":90.0891,"MEAN_ANOMALY":270.0239,"EPHEMERIS_TYPE":0,"CLASSIFICATION_TYPE":"U","NORAD_CAT_ID":46118,"ELEMENT_SET_NO":999,"REV_AT_EPOCH":11152,"BSTAR":9.1563e-5,"MEAN_MOTION_DOT":1.083e-5,"MEAN_MOTION_DDOT":0},{"OBJECT_NAME":"STARLINK-1593","OBJECT_ID":"2020-057C","EPOCH":"2022-08-18T17:48:41.752224","MEAN_MOTION":15.06406677,"ECCENTRICITY":0.0001299,"INCLINATION":53.0548,"RA_OF_ASC_NODE":27.8161,"ARG_OF_PERICENTER":86.0289,"MEAN_ANOMALY":274.0849,"EPHEMERIS_TYPE":0,"CLASSIFICATION_TYPE":"U","NORAD_CAT_ID":46119,"ELEMENT_SET_NO":999,"REV_AT_EPOCH":11154,"BSTAR":0.00022178,"MEAN_MOTION_DOT":3.024e-5,"MEAN_MOTION_DDOT":0},{"OBJECT_NAME":"STARLINK-1601","OBJECT_ID":"2020-057D","EPOCH":"2022-08-18T17:27:27.963072","MEAN_MOTION":15.06408725,"ECCENTRICITY":0.0001313,"INCLINATION":53.0559,"RA_OF_ASC_NODE":27.8965,"ARG_OF_PERICENTER":76.6888,"MEAN_ANOMALY":283.4247,"EPHEMERIS_TYPE":0,"CLASSIFICATION_TYPE":"U","NORAD_CAT_ID":46120,"ELEMENT_SET_NO":999,"REV_AT_EPOCH":11156,"BSTAR":0.00015288,"MEAN_MOTION_DOT":1.997e-5,"MEAN_MOTION_DDOT":0},{"OBJECT_NAME":"STARLINK-1602","OBJECT_ID":"2020-057E","EPOCH":"2022-08-18T10:20:11.885568","MEAN_MOTION":15.06406073,"ECCENTRICITY":0.0001374,"INCLINATION":53.054,"RA_OF_ASC_NODE":9.2334,"ARG_OF_PERICENTER":73.4218,"MEAN_ANOMALY":286.6922,"EPHEMERIS_TYPE":0,"CLASSIFICATION_TYPE":"U","NORAD_CAT_ID":46121,"ELEMENT_SET_NO":999,"REV_AT_EPOCH":11117,"BSTAR":0.00034259,"MEAN_MOTION_DOT":4.826e-5,"MEAN_MOTION_DDOT":0},{"OBJECT_NAME":"STARLINK-1604","OBJECT_ID":"2020-057F","EPOCH":"2022-08-18T10:33:27.848160","MEAN_MOTION":15.06408586,"ECCENTRICITY":0.0001338,"INCLINATION":53.0551,"RA_OF_ASC_NODE":349.1652,"ARG_OF_PERICENTER":93.3778,"MEAN_ANOMALY":266.7364,"EPHEMERIS_TYPE":0,"CLASSIFICATION_TYPE":"U","NORAD_CAT_ID":46122,"ELEMENT_SET_NO":999,"REV_AT_EPOCH":11146,"BSTAR":0.0003666,"MEAN_MOTION_DOT":5.184e-5,"MEAN_MOTION_DDOT":0},{"OBJECT_NAME":"STARLINK-1605","OBJECT_ID":"2020-057G","EPOCH":"2022-08-19T00:32:04.740576","MEAN_MOTION":15.06408986,"ECCENTRICITY":0.0001222,"INCLINATION":53.0566,"RA_OF_ASC_NODE":346.5703,"ARG_OF_PERICENTER":83.4092,"MEAN_ANOMALY":276.7036,"EPHEMERIS_TYPE":0,"CLASSIFICATION_TYPE":"U","NORAD_CAT_ID":46123,"ELEMENT_SET_NO":999,"REV_AT_EPOCH":11154,"BSTAR":0.00012237,"MEAN_MOTION_DOT":1.542e-5,"MEAN_MOTION_DDOT":0},{"OBJECT_NAME":"STARLINK-1614","OBJECT_ID":"2020-057H","EPOCH":"2022-08-19T02:18:14.037984","MEAN_MOTION":15.06423483,"ECCENTRICITY":0.0001498,"INCLINATION":53.0536,"RA_OF_ASC_NODE":346.2241,"ARG_OF_PERICENTER":85,"MEAN_ANOMALY":275.116,"EPHEMERIS_TYPE":0,"CLASSIFICATION_TYPE":"U","NORAD_CAT_ID":46124,"ELEMENT_SET_NO":999,"REV_AT_EPOCH":11156,"BSTAR":0.00070877,"MEAN_MOTION_DOT":0.00010298,"MEAN_MOTION_DDOT":0},{"OBJECT_NAME":"STARLINK-1618","OBJECT_ID":"2020-057J","EPOCH":"2022-08-18T17:54:00.590688","MEAN_MOTION":15.06403247,"ECCENTRICITY":0.0001443,"INCLINATION":53.0556,"RA_OF_ASC_NODE":27.8163,"ARG_OF_PERICENTER":92.8899,"MEAN_ANOMALY":267.2255,"EPHEMERIS_TYPE":0,"CLASSIFICATION_TYPE":"U","NORAD_CAT_ID":46125,"ELEMENT_SET_NO":999,"REV_AT_EPOCH":11154,"BSTAR":8.3163e-5,"MEAN_MOTION_DOT":9.58e-6,"MEAN_MOTION_DDOT":0},{"OBJECT_NAME":"STARLINK-1619","OBJECT_ID":"2020-057K","EPOCH":"2022-08-18T17:16:52.223232","MEAN_MOTION":15.06401995,"ECCENTRICITY":0.0001467,"INCLINATION":53.0553,"RA_OF_ASC_NODE":27.9275,"ARG_OF_PERICENTER":97.5891,"MEAN_ANOMALY":262.5265,"EPHEMERIS_TYPE":0,"CLASSIFICATION_TYPE":"U","NORAD_CAT_ID":46126,"ELEMENT_SET_NO":999,"REV_AT_EPOCH":11028,"BSTAR":0.00041522,"MEAN_MOTION_DOT":5.909e-5,"MEAN_MOTION_DDOT":0},{"OBJECT_NAME":"STARLINK-1621","OBJECT_ID":"2020-057L","EPOCH":"2022-08-18T17:03:34.683840","MEAN_MOTION":15.06410775,"ECCENTRICITY":0.0001523,"INCLINATION":53.0565,"RA_OF_ASC_NODE":7.9569,"ARG_OF_PERICENTER":79.4884,"MEAN_ANOMALY":280.6277,"EPHEMERIS_TYPE":0,"CLASSIFICATION_TYPE":"U","NORAD_CAT_ID":46127,"ELEMENT_SET_NO":999,"REV_AT_EPOCH":11055,"BSTAR":-6.5978e-5,"MEAN_MOTION_DOT":-1.264e-5,"MEAN_MOTION_DDOT":0},{"OBJECT_NAME":"STARLINK-1622","OBJECT_ID":"2020-057M","EPOCH":"2022-08-18T11:21:13.583232","MEAN_MOTION":15.06415844,"ECCENTRICITY":0.0001245,"INCLINATION":53.054,"RA_OF_ASC_NODE":349.0177,"ARG_OF_PERICENTER":104.0251,"MEAN_ANOMALY":256.0877,"EPHEMERIS_TYPE":0,"CLASSIFICATION_TYPE":"U","NORAD_CAT_ID":46128,"ELEMENT_SET_NO":999,"REV_AT_EPOCH":11146,"BSTAR":0.00041836,"MEAN_MOTION_DOT":5.958e-5,"MEAN_MOTION_DDOT":0},{"OBJECT_NAME":"STARLINK-1623","OBJECT_ID":"2020-057N","EPOCH":"2022-08-18T12:19:37.177536","MEAN_MOTION":15.06401845,"ECCENTRICITY":0.0001245,"INCLINATION":53.0554,"RA_OF_ASC_NODE":348.8545,"ARG_OF_PERICENTER":107.6319,"MEAN_ANOMALY":252.4806,"EPHEMERIS_TYPE":0,"CLASSIFICATION_TYPE":"U","NORAD_CAT_ID":46129,"ELEMENT_SET_NO":999,"REV_AT_EPOCH":11147,"BSTAR":6.7092e-5,"MEAN_MOTION_DOT":7.18e-6,"MEAN_MOTION_DDOT":0},{"OBJECT_NAME":"STARLINK-1624","OBJECT_ID":"2020-057P","EPOCH":"2022-08-18T11:31:51.245472","MEAN_MOTION":15.06395437,"ECCENTRICITY":0.0001435,"INCLINATION":53.056,"RA_OF_ASC_NODE":348.9896,"ARG_OF_PERICENTER":65.3753,"MEAN_ANOMALY":294.7385,"EPHEMERIS_TYPE":0,"CLASSIFICATION_TYPE":"U","NORAD_CAT_ID":46130,"ELEMENT_SET_NO":999,"REV_AT_EPOCH":11205,"BSTAR":8.4002e-5,"MEAN_MOTION_DOT":9.7e-6,"MEAN_MOTION_DDOT":0},{"OBJECT_NAME":"STARLINK-1625","OBJECT_ID":"2020-057Q","EPOCH":"2022-08-18T21:23:39.723072","MEAN_MOTION":15.06408539,"ECCENTRICITY":0.0001712,"INCLINATION":53.0532,"RA_OF_ASC_NODE":7.1426,"ARG_OF_PERICENTER":97.6281,"MEAN_ANOMALY":262.4902,"EPHEMERIS_TYPE":0,"CLASSIFICATION_TYPE":"U","NORAD_CAT_ID":46131,"ELEMENT_SET_NO":999,"REV_AT_EPOCH":11124,"BSTAR":0.00023592,"MEAN_MOTION_DOT":3.235e-5,"MEAN_MOTION_DDOT":0},{"OBJECT_NAME":"STARLINK-1630","OBJECT_ID":"2020-057R","EPOCH":"2022-08-18T17:32:46.833504","MEAN_MOTION":15.06402815,"ECCENTRICITY":0.0001452,"INCLINATION":53.0577,"RA_OF_ASC_NODE":27.8884,"ARG_OF_PERICENTER":91.369,"MEAN_ANOMALY":268.7465,"EPHEMERIS_TYPE":0,"CLASSIFICATION_TYPE":"U","NORAD_CAT_ID":46132,"ELEMENT_SET_NO":999,"REV_AT_EPOCH":11094,"BSTAR":5.937e-5,"MEAN_MOTION_DOT":6.03e-6,"MEAN_MOTION_DDOT":0},{"OBJECT_NAME":"STARLINK-1637","OBJECT_ID":"2020-057S","EPOCH":"2022-08-18T19:08:18.680352","MEAN_MOTION":15.06409674,"ECCENTRICITY":0.0001294,"INCLINATION":53.056,"RA_OF_ASC_NODE":347.5757,"ARG_OF_PERICENTER":100.4139,"MEAN_ANOMALY":259.6996,"EPHEMERIS_TYPE":0,"CLASSIFICATION_TYPE":"U","NORAD_CAT_ID":46133,"ELEMENT_SET_NO":999,"REV_AT_EPOCH":11151,"BSTAR":0.0003243,"MEAN_MOTION_DOT":4.553e-5,"MEAN_MOTION_DDOT":0},{"OBJECT_NAME":"STARLINK-1638","OBJECT_ID":"2020-057T","EPOCH":"2022-08-18T19:12:15.245280","MEAN_MOTION":15.06415303,"ECCENTRICITY":0.0001243,"INCLINATION":53.0552,"RA_OF_ASC_NODE":347.5532,"ARG_OF_PERICENTER":113.5517,"MEAN_ANOMALY":246.5603,"EPHEMERIS_TYPE":0,"CLASSIFICATION_TYPE":"U","NORAD_CAT_ID":46134,"ELEMENT_SET_NO":999,"REV_AT_EPOCH":11085,"BSTAR":0.00036874,"MEAN_MOTION_DOT":5.217e-5,"MEAN_MOTION_DDOT":0},{"OBJECT_NAME":"STARLINK-1639","OBJECT_ID":"2020-057U","EPOCH":"2022-08-18T14:48:13.744800","MEAN_MOTION":15.06409933,"ECCENTRICITY":0.0001192,"INCLINATION":53.0557,"RA_OF_ASC_NODE":348.3842,"ARG_OF_PERICENTER":91.7392,"MEAN_ANOMALY":268.3733,"EPHEMERIS_TYPE":0,"CLASSIFICATION_TYPE":"U","NORAD_CAT_ID":46135,"ELEMENT_SET_NO":999,"REV_AT_EPOCH":11082,"BSTAR":0.00019644,"MEAN_MOTION_DOT":2.647e-5,"MEAN_MOTION_DDOT":0},{"OBJECT_NAME":"STARLINK-1643","OBJECT_ID":"2020-057V","EPOCH":"2022-08-18T11:10:35.036256","MEAN_MOTION":15.06406409,"ECCENTRICITY":0.000136,"INCLINATION":53.0545,"RA_OF_ASC_NODE":19.0407,"ARG_OF_PERICENTER":95.8189,"MEAN_ANOMALY":264.2955,"EPHEMERIS_TYPE":0,"CLASSIFICATION_TYPE":"U","NORAD_CAT_ID":46136,"ELEMENT_SET_NO":999,"REV_AT_EPOCH":11038,"BSTAR":0.00032824,"MEAN_MOTION_DOT":4.612e-5,"MEAN_MOTION_DDOT":0}]